COSMOS 2433 [GLONASS-M] 
1 32275U 07052A   26141.16795463 -.00000037  00000+0  00000+0 0  9997
2 32275  65.5932 316.8426 0001593 186.6019 173.3930  2.13103960144482
COSMOS 2432 [GLONASS-M] 
1 32276U 07052B   26140.53591589 -.00000037  00000+0  00000+0 0  9991
2 32276  65.6091 316.9910 0008143 336.0455 203.0511  2.13103103144498
COSMOS 2434 [GLONASS-M] 
1 32393U 07065A   26141.40542951  .00000028  00000+0  00000+0 0  9990
2 32393  64.3157 192.8189 0001038   1.8685  70.2770  2.13101353143208
COSMOS 2436 [GLONASS-M] 
1 32395U 07065C   26141.23369236  .00000029  00000+0  00000+0 0  9997
2 32395  64.3244 192.8967 0017121 356.2296  76.5962  2.13100147143152
COSMOS 2456 [GLONASS-M] 
1 36111U 09070A   26141.24528553 -.00000011  00000+0  00000+0 0  9997
2 36111  64.9965  71.8906 0005569 323.2194 144.0613  2.13103560127856
COSMOS 2457 [GLONASS-M] 
1 36112U 09070B   26140.72355634 -.00000010  00000+0  00000+0 0  9997
2 36112  64.9819  71.7531 0001600 138.4332  56.2548  2.13101071127845
COSMOS 2460 [GLONASS-M] 
1 36402U 10007C   26136.70942285 -.00000031  00000+0  00000+0 0  9991
2 36402  65.4389 315.5319 0002205  80.0171 277.1198  2.13106192126059
COSMOS 2476 [GLONASS-M] 
1 37867U 11064A   26141.46486641 -.00000008  00000+0  00000+0 0  9993
2 37867  65.2558  73.7731 0023308 240.9546 303.1168  2.13103660113197
COSMOS 2477 [GLONASS-M] 
1 37868U 11064B   26141.22290223 -.00000007  00000+0  00000+0 0  9996
2 37868  65.2622  73.8605 0020514 242.6994 296.1650  2.13102838113185
COSMOS 2475 [GLONASS-M] 
1 37869U 11064C   26141.75548420 -.00000009  00000+0  00000+0 0  9992
2 37869  65.2696  73.8638 0026506 254.8762 287.7993  2.13101688113209
COSMOS 2485 [GLONASS-M] 
1 39155U 13019A   26141.16219815 -.00000005  00000+0  00000+0 0  9998
2 39155  65.4055  74.5110 0023740 236.3042 123.4630  2.13103096101707
COSMOS 2492 [GLONASS-M] 
1 39620U 14012A   26140.18259422 -.00000036  00000+0  00000+0 0  9992
2 39620  65.3143 314.8875 0010943 329.1830  30.7466  2.13103163 94642
COSMOS 2500 [GLONASS-M] 
1 40001U 14032A   26140.35270682 -.00000036  00000+0  00000+0 0  9999
2 40001  65.2520 314.6310 0006653 181.8281 178.1634  2.13105938 92861
COSMOS 2501 [GLONASS-K] 
1 40315U 14075A   26140.14518536  .00000041  00000+0  00000+0 0  9999
2 40315  63.6145 191.3429 0022339 211.7322 148.2107  2.13101322 89258
COSMOS 2514 [GLONASS-M] 
1 41330U 16008A   26141.53735310 -.00000036  00000+0  00000+0 0  9995
2 41330  65.0381 313.9208 0010292 196.8255 163.1348  2.13102575 80057
COSMOS 2522 [GLONASS-M] 
1 42939U 17055A   26139.02891852  .00000056  00000+0  00000+0 0  9990
2 42939  64.0783 192.8783 0009756 218.2478 141.7671  2.13104887 67356
COSMOS 2527 [GLONASS-M] 
1 43508U 18053A   26140.39819576 -.00000004  00000+0  00000+0 0  9991
2 43508  65.5635  74.8340 0007838 245.6715 114.2378  2.13101956 61689
COSMOS 2529 [GLONASS-M] 
1 43687U 18086A   26138.14863914  .00000068  00000+0  00000+0 0  9999
2 43687  64.2929 193.6085 0011215 256.0071 103.9560  2.13102075 58643
COSMOS 2534 [GLONASS-M] 
1 44299U 19030A   26141.25372476  .00000029  00000+0  00000+0 0  9990
2 44299  64.3664 193.5234 0012850 275.6584  80.9708  2.13102334 54346
COSMOS 2544 [GLONASS-M] 
1 44850U 19088A   26141.28142542 -.00000005  00000+0  00000+0 0  9993
2 44850  65.5519  74.6283 0014030 261.3236  98.5111  2.13102115 50146
COSMOS 2545 [GLONASS-M] 
1 45358U 20018A   26141.00734315 -.00000037  00000+0  00000+0 0  9992
2 45358  64.3718 313.3743 0007464 233.4648 126.4596  2.13102364 48086
COSMOS 2547 [GLONASS-K] 
1 46805U 20075A   26140.72740418  .00000034  00000+0  00000+0 0  9998
2 46805  64.5981 193.3924 0008192 239.9284 120.0661  2.13100430 43328
COSMOS 2557 [GLONASS-K] 
1 52984U 22075A   26139.95334907 -.00000039  00000+0  00000+0 0  9996
2 52984  64.3157 315.4807 0010109 278.6015  81.2783  2.13101935 30113
COSMOS 2559 [GLONASS-K] 
1 54031U 22130A   26139.30364975 -.00000039  00000+0  00000+0 0  9990
2 54031  64.2945 315.5867 0012125 176.3720 183.6319  2.13101396 28071
COSMOS 2564 [GLONASS-M] 
1 54377U 22161A   26141.49333039  .00000027  00000+0  00000+0 0  9993
2 54377  64.7395 193.5978 0011727 222.8427 137.1382  2.13101985 27069
COSMOS 2569 [GLONASS-K2]
1 57517U 23114A   26141.03644507 -.00000007  00000+0  00000+0 0  9995
2 57517  65.2878  73.5356 0011680 296.5129  63.3617  2.13103681 21680
COSMOS 2584 [GLONASS-K2]
1 63130U 25042A   26140.92332502 -.00000007  00000+0  00000+0 0  9991
2 63130  65.0698  73.7284 0006133 233.0427 126.8949  2.13103738  9460
COSMOS 2596 [GLONASS-K1]
1 65590U 25206B   26140.53574256 -.00000038  00000+0  00000+0 0  9990
2 65590  64.6521 315.9473 0011199 315.4946 223.7566  2.13100430  5321
